{
"type": "FeatureCollection",
"name": "35.76_Kota_Mojokerto_kecamatan",
"crs": { "type": "name", "properties": { "name": "urn:ogc:def:crs:EPSG::4979" } },
"features": [
{ "type": "Feature", "properties": { "nm_kecamatan": "Prajuritkulon" }, "geometry": { "type": "MultiPolygon", "coordinates": [ [ [ [ 112.425979914000095, -7.482193807999977, 0.0 ], [ 112.425921750000043, -7.482275944999969, 0.0 ], [ 112.425778103000084, -7.482478795999953, 0.0 ], [ 112.425397978000092, -7.483015587999944, 0.0 ], [ 112.424938687, -7.483636738999962, 0.0 ], [ 112.424808473000098, -7.484041556999955, 0.0 ], [ 112.424782354000058, -7.484122756999966, 0.0 ], [ 112.424616223000044, -7.484696894999956, 0.0 ], [ 112.424590324000064, -7.48474467099993, 0.0 ], [ 112.424102293000033, -7.48564492099996, 0.0 ], [ 112.424127189000046, -7.485906481999962, 0.0 ], [ 112.424164468000072, -7.486298143999932, 0.0 ], [ 112.424214844000062, -7.486676891999934, 0.0 ], [ 112.424269880000111, -7.487090670999976, 0.0 ], [ 112.424246305000111, -7.487219952999965, 0.0 ], [ 112.424151105000078, -7.487742027999957, 0.0 ], [ 112.424112476, -7.488077726999961, 0.0 ], [ 112.42406923100009, -7.488453546999949, 0.0 ], [ 112.424248071000079, -7.488796925999964, 0.0 ], [ 112.424302169000043, -7.488900795999939, 0.0 ], [ 112.424478380000096, -7.489265067999952, 0.0 ], [ 112.424530046000086, -7.489831808999952, 0.0 ], [ 112.424186764000069, -7.490480962999925, 0.0 ], [ 112.42375185800006, -7.49101044799994, 0.0 ], [ 112.423751792000076, -7.49101054099998, 0.0 ], [ 112.423334202000092, -7.491595219999965, 0.0 ], [ 112.423261229000104, -7.491890167999941, 0.0 ], [ 112.423247789000015, -7.491944488999934, 0.0 ], [ 112.423238080000033, -7.492017032999968, 0.0 ], [ 112.423159963000103, -7.492600710999966, 0.0 ], [ 112.422993203000033, -7.492886471999952, 0.0 ], [ 112.422965321000106, -7.492934250999951, 0.0 ], [ 112.422636864000083, -7.493365351999955, 0.0 ], [ 112.422113606000039, -7.494052131999979, 0.0 ], [ 112.42197636700007, -7.49388410499995, 0.0 ], [ 112.421974345000081, -7.493881629999976, 0.0 ], [ 112.420982238000079, -7.492666952999969, 0.0 ], [ 112.420326045000024, -7.49247162599994, 0.0 ], [ 112.420105562000117, -7.49313871399994, 0.0 ], [ 112.41992054800005, -7.493299734999937, 0.0 ], [ 112.418808021000018, -7.493513108999935, 0.0 ], [ 112.417961464000086, -7.493676310999945, 0.0 ], [ 112.416450092000105, -7.49400869699997, 0.0 ], [ 112.416366982000113, -7.49402697499994, 0.0 ], [ 112.415612433000092, -7.494017061999955, 0.0 ], [ 112.415354637000064, -7.494622567999954, 0.0 ], [ 112.414958828000067, -7.494623840999964, 0.0 ], [ 112.415142849000063, -7.494154315999936, 0.0 ], [ 112.41514225100002, -7.494136430999959, 0.0 ], [ 112.415074392000065, -7.492106038999964, 0.0 ], [ 112.414882490000082, -7.492027376999943, 0.0 ], [ 112.414566588000071, -7.491897884999958, 0.0 ], [ 112.4136630590001, -7.491715682999939, 0.0 ], [ 112.413591810000071, -7.491870331999962, 0.0 ], [ 112.413590000000113, -7.491870181999957, 0.0 ], [ 112.412182992000112, -7.491753252999956, 0.0 ], [ 112.412107115000026, -7.491746946999967, 0.0 ], [ 112.41130866900005, -7.491714248999926, 0.0 ], [ 112.409552387000076, -7.491736550999974, 0.0 ], [ 112.408863571000097, -7.491738754999972, 0.0 ], [ 112.408097142000088, -7.491741207999951, 0.0 ], [ 112.408017832000041, -7.491723423999929, 0.0 ], [ 112.407655937000072, -7.491642276999926, 0.0 ], [ 112.407900436000091, -7.490858053999943, 0.0 ], [ 112.407915679000098, -7.490120007999963, 0.0 ], [ 112.407857598000078, -7.488486055999942, 0.0 ], [ 112.407853369, -7.487168216999976, 0.0 ], [ 112.407798059000015, -7.484456499999965, 0.0 ], [ 112.407661611000094, -7.484336270999961, 0.0 ], [ 112.407656492000115, -7.484331759999975, 0.0 ], [ 112.407656127000109, -7.484310224999945, 0.0 ], [ 112.407617796000068, -7.482047121999926, 0.0 ], [ 112.407745707000117, -7.479129264999926, 0.0 ], [ 112.407549747000076, -7.479178823999973, 0.0 ], [ 112.406615164000073, -7.479415180999979, 0.0 ], [ 112.405793691000099, -7.479213796999943, 0.0 ], [ 112.405803139000113, -7.479120231999957, 0.0 ], [ 112.405805346000079, -7.479098373999932, 0.0 ], [ 112.405828600000063, -7.478868087999956, 0.0 ], [ 112.406048980000037, -7.47789179199998, 0.0 ], [ 112.406298814000024, -7.477389261999974, 0.0 ], [ 112.408244377000074, -7.476413024999943, 0.0 ], [ 112.410170107000113, -7.475793643999964, 0.0 ], [ 112.410238670000012, -7.475611697999966, 0.0 ], [ 112.411194370000089, -7.473075563999942, 0.0 ], [ 112.412790864000044, -7.474112815999945, 0.0 ], [ 112.413434008000081, -7.474291937999965, 0.0 ], [ 112.414422201000093, -7.473173810999981, 0.0 ], [ 112.414196101000016, -7.472366188999956, 0.0 ], [ 112.414000444000067, -7.472232322999957, 0.0 ], [ 112.413608117000081, -7.471963898999945, 0.0 ], [ 112.413105500000029, -7.471424966999962, 0.0 ], [ 112.412921279000102, -7.471227436999925, 0.0 ], [ 112.412636713000097, -7.469611653999948, 0.0 ], [ 112.412698984000031, -7.469509964999929, 0.0 ], [ 112.412747880000097, -7.469430116999945, 0.0 ], [ 112.412322375000031, -7.468719707999981, 0.0 ], [ 112.412192361000052, -7.468651088999934, 0.0 ], [ 112.412113422000061, -7.468609426999933, 0.0 ], [ 112.412212192000084, -7.468449155999963, 0.0 ], [ 112.412519096000096, -7.468082197999934, 0.0 ], [ 112.412729550000108, -7.46783056299995, 0.0 ], [ 112.413152618000026, -7.467380035999952, 0.0 ], [ 112.413353681000103, -7.467165922999925, 0.0 ], [ 112.413571939, -7.466972029999965, 0.0 ], [ 112.414016235000076, -7.46657732999995, 0.0 ], [ 112.414687830000048, -7.466422848999969, 0.0 ], [ 112.415313940000033, -7.466375147999941, 0.0 ], [ 112.416100361000076, -7.466304071999957, 0.0 ], [ 112.416635703000111, -7.466168374999938, 0.0 ], [ 112.416720338, -7.46614692199995, 0.0 ], [ 112.416793238000082, -7.46600901599993, 0.0 ], [ 112.416617949000056, -7.465610316999971, 0.0 ], [ 112.415563040000052, -7.464312443999972, 0.0 ], [ 112.415452893000065, -7.464176927999972, 0.0 ], [ 112.415438732000098, -7.46415950599993, 0.0 ], [ 112.415438397000116, -7.464104205999945, 0.0 ], [ 112.415403018, -7.458260817999928, 0.0 ], [ 112.415700245000039, -7.457409994999978, 0.0 ], [ 112.415701039000055, -7.45740772299996, 0.0 ], [ 112.415814031000082, -7.457281526999964, 0.0 ], [ 112.417173328000104, -7.457115843999929, 0.0 ], [ 112.417307735, -7.457099460999927, 0.0 ], [ 112.41762003000008, -7.45706914699997, 0.0 ], [ 112.418684499000051, -7.456965820999926, 0.0 ], [ 112.421021005000057, -7.456862714999943, 0.0 ], [ 112.422896951000098, -7.457092951999925, 0.0 ], [ 112.424896519000072, -7.457677856999965, 0.0 ], [ 112.426490023000042, -7.458310082999958, 0.0 ], [ 112.427766034000115, -7.458945244999938, 0.0 ], [ 112.428847873000109, -7.459534014999974, 0.0 ], [ 112.430746434000071, -7.460135376999972, 0.0 ], [ 112.430752853000058, -7.460135610999941, 0.0 ], [ 112.431764994000105, -7.460172473999933, 0.0 ], [ 112.431959971000083, -7.460158036999928, 0.0 ], [ 112.431960000000117, -7.460159998999927, 0.0 ], [ 112.431970001000082, -7.46084, 0.0 ], [ 112.431970001000082, -7.4611, 0.0 ], [ 112.431990001000031, -7.46191, 0.0 ], [ 112.431990001000031, -7.46222, 0.0 ], [ 112.43198, -7.462430001999962, 0.0 ], [ 112.43198, -7.46257, 0.0 ], [ 112.431990001000031, -7.462949998999932, 0.0 ], [ 112.431970001000082, -7.46344, 0.0 ], [ 112.431950001000018, -7.464050001999965, 0.0 ], [ 112.431960000000117, -7.46496, 0.0 ], [ 112.431960000000117, -7.465570001999936, 0.0 ], [ 112.431960000000117, -7.46588000099996, 0.0 ], [ 112.431970001000082, -7.466350001999956, 0.0 ], [ 112.431970001000082, -7.466749998999944, 0.0 ], [ 112.43198, -7.46734, 0.0 ], [ 112.43198, -7.467930001999946, 0.0 ], [ 112.432, -7.46868, 0.0 ], [ 112.43198, -7.46947000199998, 0.0 ], [ 112.431990001000031, -7.47009, 0.0 ], [ 112.432, -7.47047, 0.0 ], [ 112.432, -7.470680001999938, 0.0 ], [ 112.431994298000063, -7.471103415999949, 0.0 ], [ 112.431992956000045, -7.47120315199993, 0.0 ], [ 112.432, -7.471770000999925, 0.0 ], [ 112.43143, -7.471730000999969, 0.0 ], [ 112.4311, -7.4717, 0.0 ], [ 112.430860001000042, -7.47169, 0.0 ], [ 112.430848289000096, -7.47168877699994, 0.0 ], [ 112.430827438000051, -7.471918166999956, 0.0 ], [ 112.430827380000096, -7.471918809999977, 0.0 ], [ 112.430820001000029, -7.472, 0.0 ], [ 112.430794164000076, -7.472193888999925, 0.0 ], [ 112.430793161000111, -7.472201416999951, 0.0 ], [ 112.43078378000007, -7.472271820999936, 0.0 ], [ 112.430781206, -7.47229114199996, 0.0 ], [ 112.430774905000021, -7.472363597999959, 0.0 ], [ 112.429809249000073, -7.472376261999955, 0.0 ], [ 112.428856275000044, -7.472440507999977, 0.0 ], [ 112.428786081000112, -7.472450026999979, 0.0 ], [ 112.428784206000046, -7.472450279999975, 0.0 ], [ 112.428770001000089, -7.4725, 0.0 ], [ 112.4287535200001, -7.472576901999957, 0.0 ], [ 112.428753103000076, -7.472578853999948, 0.0 ], [ 112.42871, -7.472779998999954, 0.0 ], [ 112.42858999900011, -7.473330000999965, 0.0 ], [ 112.428540000000112, -7.47358, 0.0 ], [ 112.428420001000063, -7.47401, 0.0 ], [ 112.42838000100005, -7.47419999899995, 0.0 ], [ 112.428323457000033, -7.474558111999954, 0.0 ], [ 112.428320610000014, -7.47457613499995, 0.0 ], [ 112.42823, -7.47515, 0.0 ], [ 112.42811000100005, -7.47591, 0.0 ], [ 112.428010001000075, -7.47636, 0.0 ], [ 112.427998722000098, -7.47641946899995, 0.0 ], [ 112.427998215000116, -7.476422139999954, 0.0 ], [ 112.4279, -7.476940001999935, 0.0 ], [ 112.42776, -7.477600000999928, 0.0 ], [ 112.427600001000087, -7.47815, 0.0 ], [ 112.42736380000008, -7.478762371999949, 0.0 ], [ 112.427362410000114, -7.478765975999977, 0.0 ], [ 112.427330001000087, -7.478850001999945, 0.0 ], [ 112.427210001000049, -7.47911, 0.0 ], [ 112.426940001000048, -7.47962, 0.0 ], [ 112.426860001000023, -7.47977, 0.0 ], [ 112.426671910000096, -7.480129077999948, 0.0 ], [ 112.42666852900004, -7.480135536999967, 0.0 ], [ 112.426639999000031, -7.480189998999947, 0.0 ], [ 112.42652, -7.4804, 0.0 ], [ 112.42646, -7.480519998999966, 0.0 ], [ 112.42642, -7.480599998999935, 0.0 ], [ 112.42637, -7.480700000999946, 0.0 ], [ 112.42634, -7.480780000999971, 0.0 ], [ 112.42633, -7.480815, 0.0 ], [ 112.426328329000057, -7.480820851999965, 0.0 ], [ 112.42632, -7.480849998999929, 0.0 ], [ 112.426339272000064, -7.480965632999926, 0.0 ], [ 112.426336986000024, -7.48096646099998, 0.0 ], [ 112.426197861000105, -7.481736790999946, 0.0 ], [ 112.426003779000098, -7.482143764999933, 0.0 ], [ 112.425979914000095, -7.482193807999977, 0.0 ] ] ] ] } },
{ "type": "Feature", "properties": { "nm_kecamatan": "Magersari" }, "geometry": { "type": "MultiPolygon", "coordinates": [ [ [ [ 112.461316336000095, -7.47339183899993, 0.0 ], [ 112.460832908000043, -7.478700513999968, 0.0 ], [ 112.460809945000051, -7.47898847099998, 0.0 ], [ 112.460578419000058, -7.48189182599998, 0.0 ], [ 112.460550996000052, -7.482235714999945, 0.0 ], [ 112.460494849000042, -7.482939798999951, 0.0 ], [ 112.458564253000077, -7.482712527999979, 0.0 ], [ 112.457804540000097, -7.482443989999979, 0.0 ], [ 112.455665173000057, -7.482535483999925, 0.0 ], [ 112.453350146000048, -7.482206645999952, 0.0 ], [ 112.452118150000047, -7.481995518999952, 0.0 ], [ 112.450849408000067, -7.481748554999967, 0.0 ], [ 112.45087, -7.481500000999972, 0.0 ], [ 112.45091, -7.48127999899998, 0.0 ], [ 112.45097, -7.480989998999974, 0.0 ], [ 112.45117, -7.48018, 0.0 ], [ 112.45139, -7.47956, 0.0 ], [ 112.45142, -7.47947, 0.0 ], [ 112.451475631000108, -7.479283806999945, 0.0 ], [ 112.451560018, -7.479001367999956, 0.0 ], [ 112.451884457, -7.477915491999966, 0.0 ], [ 112.451910000000112, -7.477829998999937, 0.0 ], [ 112.451964607000036, -7.477659351999932, 0.0 ], [ 112.451989998000045, -7.477580000999978, 0.0 ], [ 112.45202, -7.47752, 0.0 ], [ 112.4521, -7.47722, 0.0 ], [ 112.4522, -7.47706, 0.0 ], [ 112.45228, -7.47689, 0.0 ], [ 112.45231, -7.476840000999971, 0.0 ], [ 112.452395463000016, -7.476783019999971, 0.0 ], [ 112.45250015900001, -7.476802054999951, 0.0 ], [ 112.45262389100003, -7.476840125999956, 0.0 ], [ 112.452776177000032, -7.476816331999942, 0.0 ], [ 112.452823766000051, -7.476735429999962, 0.0 ], [ 112.452832908, -7.476326962999963, 0.0 ], [ 112.452833499, -7.476299489999974, 0.0 ], [ 112.452839256000061, -7.476031800999976, 0.0 ], [ 112.452843918000099, -7.475815014999966, 0.0 ], [ 112.452854125000044, -7.475373226999977, 0.0 ], [ 112.452860101000056, -7.475125225999932, 0.0 ], [ 112.452866596000035, -7.474855655999932, 0.0 ], [ 112.452748117000056, -7.474847757999953, 0.0 ], [ 112.452566784000055, -7.474855655999932, 0.0 ], [ 112.4523, -7.47494, 0.0 ], [ 112.4523, -7.474600000999942, 0.0 ], [ 112.45229, -7.47436, 0.0 ], [ 112.45225, -7.47418, 0.0 ], [ 112.45221, -7.47403, 0.0 ], [ 112.452183120000086, -7.473971760999973, 0.0 ], [ 112.45215, -7.4739, 0.0 ], [ 112.452029998000057, -7.47386, 0.0 ], [ 112.45161, -7.47386999899993, 0.0 ], [ 112.45153, -7.473740000999953, 0.0 ], [ 112.451517694000017, -7.473626165999974, 0.0 ], [ 112.45149, -7.473370000999978, 0.0 ], [ 112.451499039000055, -7.47318619899994, 0.0 ], [ 112.451030081000113, -7.47321468399997, 0.0 ], [ 112.451027667000062, -7.473126988999979, 0.0 ], [ 112.451008399000102, -7.47242691799994, 0.0 ], [ 112.450997958000016, -7.472047558999975, 0.0 ], [ 112.44982582800003, -7.472155406999946, 0.0 ], [ 112.449386511000057, -7.472195829999976, 0.0 ], [ 112.44834723800011, -7.472291453999958, 0.0 ], [ 112.448497144000044, -7.471388447999971, 0.0 ], [ 112.44863991200009, -7.470471165999982, 0.0 ], [ 112.448504283000034, -7.470435473999942, 0.0 ], [ 112.448559999000054, -7.47, 0.0 ], [ 112.448155984000095, -7.469925203999935, 0.0 ], [ 112.44750015000011, -7.469814434999932, 0.0 ], [ 112.447389999000052, -7.469780000999947, 0.0 ], [ 112.447320000000104, -7.46979, 0.0 ], [ 112.447123142, -7.469760043999941, 0.0 ], [ 112.446857745000102, -7.469771611999931, 0.0 ], [ 112.446857074000036, -7.469771639999976, 0.0 ], [ 112.446568185000046, -7.469784231999938, 0.0 ], [ 112.446437195000044, -7.469789941999977, 0.0 ], [ 112.445584389000032, -7.469815650999976, 0.0 ], [ 112.445175133000021, -7.46983488199993, 0.0 ], [ 112.445139126000072, -7.470092933999979, 0.0 ], [ 112.445137285000101, -7.470106125999962, 0.0 ], [ 112.445129814000097, -7.470159664999926, 0.0 ], [ 112.445128984, -7.470165613999939, 0.0 ], [ 112.44512, -7.470230000999948, 0.0 ], [ 112.445069292000085, -7.470632677999959, 0.0 ], [ 112.445064854000066, -7.470667916999957, 0.0 ], [ 112.445004355000037, -7.471148351999943, 0.0 ], [ 112.444989166000028, -7.471268968999937, 0.0 ], [ 112.444949998000084, -7.47158, 0.0 ], [ 112.444934680000074, -7.47169489099997, 0.0 ], [ 112.444910949000018, -7.471872875999964, 0.0 ], [ 112.444870130000027, -7.472179023999956, 0.0 ], [ 112.444856508000044, -7.472281185999975, 0.0 ], [ 112.445095011000035, -7.472271295999974, 0.0 ], [ 112.445084109000049, -7.472386838999967, 0.0 ], [ 112.445069656000101, -7.472540012999957, 0.0 ], [ 112.44416, -7.472611395999934, 0.0 ], [ 112.44415, -7.47306, 0.0 ], [ 112.44413, -7.473149998999929, 0.0 ], [ 112.44409, -7.47323, 0.0 ], [ 112.444075307000048, -7.473264283999981, 0.0 ], [ 112.44406, -7.4733, 0.0 ], [ 112.444047676000082, -7.473320540999964, 0.0 ], [ 112.444, -7.4734, 0.0 ], [ 112.44392, -7.473499998999955, 0.0 ], [ 112.443942380000067, -7.473627061999935, 0.0 ], [ 112.443949813000017, -7.473708715999976, 0.0 ], [ 112.443962300000067, -7.473845900999947, 0.0 ], [ 112.443966585000112, -7.473920163999935, 0.0 ], [ 112.443969155000104, -7.473964713999976, 0.0 ], [ 112.444025667, -7.473994456999947, 0.0 ], [ 112.444183306000014, -7.473979585999928, 0.0 ], [ 112.444201133000092, -7.473920163999935, 0.0 ], [ 112.444210075000115, -7.47389035599997, 0.0 ], [ 112.444207101000075, -7.47382194599993, 0.0 ], [ 112.444281459000081, -7.473804101999974, 0.0 ], [ 112.444542575000014, -7.473795468999981, 0.0 ], [ 112.444641353000065, -7.473792203999949, 0.0 ], [ 112.444641353000065, -7.473848714999974, 0.0 ], [ 112.444632180000099, -7.473920163999935, 0.0 ], [ 112.444620881000105, -7.474008176999973, 0.0 ], [ 112.44460118500001, -7.474161596999977, 0.0 ], [ 112.444584840000061, -7.474288915999978, 0.0 ], [ 112.444552123000108, -7.474306761999969, 0.0 ], [ 112.444086826000103, -7.47434151799996, 0.0 ], [ 112.444067052000037, -7.474343379999937, 0.0 ], [ 112.443933077000111, -7.474356001999979, 0.0 ], [ 112.443717309000021, -7.474376328999938, 0.0 ], [ 112.44335095200006, -7.47441127299993, 0.0 ], [ 112.443252739000059, -7.474420638999959, 0.0 ], [ 112.442896458000064, -7.474452694999968, 0.0 ], [ 112.442303532000096, -7.474506041999973, 0.0 ], [ 112.442301605000011, -7.474424404999979, 0.0 ], [ 112.442299809000019, -7.474348303999932, 0.0 ], [ 112.442297074000066, -7.474232459999939, 0.0 ], [ 112.442296860000056, -7.47422338299998, 0.0 ], [ 112.442293698000071, -7.474089452999976, 0.0 ], [ 112.441900954000062, -7.474034671999959, 0.0 ], [ 112.441494319000071, -7.473977950999938, 0.0 ], [ 112.441415071000051, -7.473966896999968, 0.0 ], [ 112.441277553000077, -7.473947714999952, 0.0 ], [ 112.441256366000061, -7.473944759999938, 0.0 ], [ 112.441161195000063, -7.473933875999933, 0.0 ], [ 112.44111836400009, -7.473928977999947, 0.0 ], [ 112.441034805000072, -7.473919422999927, 0.0 ], [ 112.440978452000081, -7.473912976999941, 0.0 ], [ 112.440799811000034, -7.473892545999945, 0.0 ], [ 112.440719686000079, -7.47388338199994, 0.0 ], [ 112.440566366000098, -7.473865847999946, 0.0 ], [ 112.44052591600007, -7.473930092999979, 0.0 ], [ 112.440506881000033, -7.474101413999961, 0.0 ], [ 112.440485465000052, -7.474146624999946, 0.0 ], [ 112.439969597000072, -7.474194818999933, 0.0 ], [ 112.439797800000065, -7.474210868999933, 0.0 ], [ 112.439666529000078, -7.474218041999961, 0.0 ], [ 112.43966191100003, -7.473710242999971, 0.0 ], [ 112.439660000000117, -7.47353, 0.0 ], [ 112.439660000000117, -7.473109998999973, 0.0 ], [ 112.43965, -7.47263000099997, 0.0 ], [ 112.43965, -7.472289997999951, 0.0 ], [ 112.43963, -7.471099997999943, 0.0 ], [ 112.43961, -7.469989998999949, 0.0 ], [ 112.439608552000095, -7.469901645999926, 0.0 ], [ 112.439606688000026, -7.469787947999976, 0.0 ], [ 112.439193093000085, -7.469805976999965, 0.0 ], [ 112.438573520000091, -7.469795525999928, 0.0 ], [ 112.438577804000033, -7.469592797999951, 0.0 ], [ 112.438276826000106, -7.469591444999935, 0.0 ], [ 112.43751604900001, -7.469549470999937, 0.0 ], [ 112.43748, -7.469539997999959, 0.0 ], [ 112.43761, -7.469000000999927, 0.0 ], [ 112.43765, -7.46881, 0.0 ], [ 112.43767, -7.468730000999926, 0.0 ], [ 112.437760001000015, -7.46831, 0.0 ], [ 112.437760001000015, -7.468220000999963, 0.0 ], [ 112.43783, -7.467850000999931, 0.0 ], [ 112.437900001000116, -7.467560000999981, 0.0 ], [ 112.437920001000066, -7.467480000999956, 0.0 ], [ 112.43814, -7.466519998999956, 0.0 ], [ 112.438150459000099, -7.466368643999942, 0.0 ], [ 112.438468189000105, -7.466364344999931, 0.0 ], [ 112.43905557100004, -7.466367022999975, 0.0 ], [ 112.439132731000086, -7.466367853999941, 0.0 ], [ 112.439547743000048, -7.466372324999952, 0.0 ], [ 112.439536954, -7.466048631999968, 0.0 ], [ 112.439530699000102, -7.465860970999927, 0.0 ], [ 112.439530302000094, -7.465849072999958, 0.0 ], [ 112.43952, -7.46554, 0.0 ], [ 112.43954, -7.465329998999948, 0.0 ], [ 112.439517568000042, -7.465098214999955, 0.0 ], [ 112.43951370000002, -7.464968193999937, 0.0 ], [ 112.439518007000061, -7.464808252999944, 0.0 ], [ 112.439515453000013, -7.464716306999946, 0.0 ], [ 112.439511767000113, -7.464583594999965, 0.0 ], [ 112.439509436000094, -7.464531726999951, 0.0 ], [ 112.439496367000061, -7.464240950999965, 0.0 ], [ 112.439422703000105, -7.464235018999943, 0.0 ], [ 112.438954976000105, -7.464230933999943, 0.0 ], [ 112.438727586000027, -7.464228982999941, 0.0 ], [ 112.43850343500003, -7.464227592999976, 0.0 ], [ 112.438360669000076, -7.464226703999941, 0.0 ], [ 112.438092273000052, -7.464214732999949, 0.0 ], [ 112.437822515000107, -7.464235018999943, 0.0 ], [ 112.437726795000117, -7.464234061999946, 0.0 ], [ 112.437609695000106, -7.464232890999938, 0.0 ], [ 112.437561162000065, -7.46423240699994, 0.0 ], [ 112.437530860000038, -7.464232721999963, 0.0 ], [ 112.437342010000066, -7.464234697999927, 0.0 ], [ 112.437319853000076, -7.464235018999943, 0.0 ], [ 112.437258342000064, -7.464229004999936, 0.0 ], [ 112.43724, -7.46396, 0.0 ], [ 112.43724, -7.46378, 0.0 ], [ 112.4372, -7.46339, 0.0 ], [ 112.437169998000059, -7.46308, 0.0 ], [ 112.437162054000055, -7.463024377999943, 0.0 ], [ 112.43716, -7.46301, 0.0 ], [ 112.437144370000055, -7.462976878999939, 0.0 ], [ 112.436204596000039, -7.462994554999966, 0.0 ], [ 112.435299999000108, -7.46302, 0.0 ], [ 112.435299999000108, -7.463190001999976, 0.0 ], [ 112.43531, -7.463990001999946, 0.0 ], [ 112.435010001000023, -7.46398, 0.0 ], [ 112.4343, -7.464010001999952, 0.0 ], [ 112.43379, -7.464050001999965, 0.0 ], [ 112.43365, -7.464050001999965, 0.0 ], [ 112.432697042000086, -7.464043472999947, 0.0 ], [ 112.432694150000088, -7.464043451999942, 0.0 ], [ 112.432190000000105, -7.464039998999965, 0.0 ], [ 112.431950001000018, -7.464050001999965, 0.0 ], [ 112.431970001000082, -7.46344, 0.0 ], [ 112.431990001000031, -7.462949998999932, 0.0 ], [ 112.43198, -7.46257, 0.0 ], [ 112.43198, -7.462430001999962, 0.0 ], [ 112.431990001000031, -7.46222, 0.0 ], [ 112.431990001000031, -7.46191, 0.0 ], [ 112.431970001000082, -7.4611, 0.0 ], [ 112.431970001000082, -7.46084, 0.0 ], [ 112.431960000000117, -7.460159998999927, 0.0 ], [ 112.431959971000083, -7.460158036999928, 0.0 ], [ 112.432867238000085, -7.460090860999969, 0.0 ], [ 112.433934777000104, -7.459830504999957, 0.0 ], [ 112.434316453000065, -7.45969056499996, 0.0 ], [ 112.435503242000095, -7.458997434999958, 0.0 ], [ 112.435841470000014, -7.458689733999961, 0.0 ], [ 112.436912186000086, -7.458010704999936, 0.0 ], [ 112.437485057000117, -7.457643903999951, 0.0 ], [ 112.437490503000049, -7.457641032999959, 0.0 ], [ 112.438203403000102, -7.457265323999934, 0.0 ], [ 112.438976212000057, -7.456743433999975, 0.0 ], [ 112.440326614000014, -7.456070985999929, 0.0 ], [ 112.441566193000085, -7.455192054999941, 0.0 ], [ 112.44156956900008, -7.455189453999935, 0.0 ], [ 112.441569621000099, -7.45518941399996, 0.0 ], [ 112.441570034000051, -7.45518909599997, 0.0 ], [ 112.44199049000008, -7.454865176999931, 0.0 ], [ 112.443322457000022, -7.453839030999973, 0.0 ], [ 112.444648875000098, -7.452634614999965, 0.0 ], [ 112.445595322000031, -7.451638215999935, 0.0 ], [ 112.446707347000029, -7.450687111999969, 0.0 ], [ 112.447419630000013, -7.450203596999927, 0.0 ], [ 112.44829225400008, -7.449814182999944, 0.0 ], [ 112.449585392000017, -7.449309014999926, 0.0 ], [ 112.450630133000118, -7.448966760999951, 0.0 ], [ 112.452073342000062, -7.448527442999932, 0.0 ], [ 112.453110710000033, -7.448113027999966, 0.0 ], [ 112.454287509000096, -7.447627743999931, 0.0 ], [ 112.455085469000096, -7.447384434999947, 0.0 ], [ 112.455491785000049, -7.448381124999969, 0.0 ], [ 112.455752767000035, -7.449153492999926, 0.0 ], [ 112.456051642000034, -7.450220291999926, 0.0 ], [ 112.456276376, -7.451195285999972, 0.0 ], [ 112.456660793000083, -7.452981457999954, 0.0 ], [ 112.456934434, -7.454435049999972, 0.0 ], [ 112.457308008000041, -7.455759342999954, 0.0 ], [ 112.457511817000068, -7.456757498999934, 0.0 ], [ 112.457511917000033, -7.456757990999961, 0.0 ], [ 112.45751214400002, -7.456759101999978, 0.0 ], [ 112.457512922000092, -7.456762912999977, 0.0 ], [ 112.45755165300011, -7.45692198699993, 0.0 ], [ 112.459946025000022, -7.456459209999935, 0.0 ], [ 112.464950056000021, -7.45551790899998, 0.0 ], [ 112.465194448000034, -7.455496803999949, 0.0 ], [ 112.465194447000044, -7.453249995999954, 0.0 ], [ 112.467105083000092, -7.453243664999945, 0.0 ], [ 112.467112032000045, -7.455331200999979, 0.0 ], [ 112.467394594000098, -7.455306797999981, 0.0 ], [ 112.468103249000023, -7.455245595999941, 0.0 ], [ 112.468114748000062, -7.458696182999972, 0.0 ], [ 112.468652023000118, -7.458694398999967, 0.0 ], [ 112.468479984000055, -7.460697938999942, 0.0 ], [ 112.468220191000114, -7.46078, 0.0 ], [ 112.467218756000079, -7.461096323999925, 0.0 ], [ 112.465003008000053, -7.461146520999932, 0.0 ], [ 112.464997869000058, -7.462183446999973, 0.0 ], [ 112.467642918000024, -7.462088975999961, 0.0 ], [ 112.467623698000011, -7.462208423999925, 0.0 ], [ 112.466934455000114, -7.466491905999931, 0.0 ], [ 112.466875762000086, -7.46685667099996, 0.0 ], [ 112.466833221000115, -7.467121050999936, 0.0 ], [ 112.465717901000062, -7.467052570999954, 0.0 ], [ 112.464764141000046, -7.466994009999951, 0.0 ], [ 112.464560910000046, -7.468448255999931, 0.0 ], [ 112.464463741000031, -7.469363304999945, 0.0 ], [ 112.46434804, -7.470396767999944, 0.0 ], [ 112.464316640000106, -7.470922852999934, 0.0 ], [ 112.465074608, -7.47126082099993, 0.0 ], [ 112.464792263000049, -7.473126539999953, 0.0 ], [ 112.464769693000108, -7.473194300999978, 0.0 ], [ 112.464596504000042, -7.473226543999942, 0.0 ], [ 112.46437711100009, -7.47319766499993, 0.0 ], [ 112.463977688000114, -7.473095069999943, 0.0 ], [ 112.463559480000072, -7.473004969999977, 0.0 ], [ 112.463312696000116, -7.473029959999963, 0.0 ], [ 112.463146599000083, -7.473067158999982, 0.0 ], [ 112.462882405000073, -7.473126327999978, 0.0 ], [ 112.462471688000051, -7.473147185999949, 0.0 ], [ 112.461954935000108, -7.473083254999949, 0.0 ], [ 112.461509278000108, -7.473067821999962, 0.0 ], [ 112.461505342, -7.473070665999956, 0.0 ], [ 112.461388910000096, -7.473154779999959, 0.0 ], [ 112.461316336000095, -7.47339183899993, 0.0 ] ] ] ] } },
{ "type": "Feature", "properties": { "nm_kecamatan": "Kranggan" }, "geometry": { "type": "MultiPolygon", "coordinates": [ [ [ [ 112.448155984000095, -7.469925203999935, 0.0 ], [ 112.448559999000054, -7.47, 0.0 ], [ 112.448504283000034, -7.470435473999942, 0.0 ], [ 112.44863991200009, -7.470471165999982, 0.0 ], [ 112.448497144000044, -7.471388447999971, 0.0 ], [ 112.44834723800011, -7.472291453999958, 0.0 ], [ 112.449386511000057, -7.472195829999976, 0.0 ], [ 112.44982582800003, -7.472155406999946, 0.0 ], [ 112.450997958000016, -7.472047558999975, 0.0 ], [ 112.451008399000102, -7.47242691799994, 0.0 ], [ 112.451027667000062, -7.473126988999979, 0.0 ], [ 112.451030081000113, -7.47321468399997, 0.0 ], [ 112.451499039000055, -7.47318619899994, 0.0 ], [ 112.45149, -7.473370000999978, 0.0 ], [ 112.451517694000017, -7.473626165999974, 0.0 ], [ 112.45153, -7.473740000999953, 0.0 ], [ 112.45161, -7.47386999899993, 0.0 ], [ 112.452029998000057, -7.47386, 0.0 ], [ 112.45215, -7.4739, 0.0 ], [ 112.452183120000086, -7.473971760999973, 0.0 ], [ 112.45221, -7.47403, 0.0 ], [ 112.45225, -7.47418, 0.0 ], [ 112.45229, -7.47436, 0.0 ], [ 112.4523, -7.474600000999942, 0.0 ], [ 112.4523, -7.47494, 0.0 ], [ 112.452566784000055, -7.474855655999932, 0.0 ], [ 112.452748117000056, -7.474847757999953, 0.0 ], [ 112.452866596000035, -7.474855655999932, 0.0 ], [ 112.452860101000056, -7.475125225999932, 0.0 ], [ 112.452854125000044, -7.475373226999977, 0.0 ], [ 112.452843918000099, -7.475815014999966, 0.0 ], [ 112.452839256000061, -7.476031800999976, 0.0 ], [ 112.452833499, -7.476299489999974, 0.0 ], [ 112.452832908, -7.476326962999963, 0.0 ], [ 112.452823766000051, -7.476735429999962, 0.0 ], [ 112.452776177000032, -7.476816331999942, 0.0 ], [ 112.45262389100003, -7.476840125999956, 0.0 ], [ 112.45250015900001, -7.476802054999951, 0.0 ], [ 112.452395463000016, -7.476783019999971, 0.0 ], [ 112.45231, -7.476840000999971, 0.0 ], [ 112.45228, -7.47689, 0.0 ], [ 112.4522, -7.47706, 0.0 ], [ 112.4521, -7.47722, 0.0 ], [ 112.45202, -7.47752, 0.0 ], [ 112.451989998000045, -7.477580000999978, 0.0 ], [ 112.451964607000036, -7.477659351999932, 0.0 ], [ 112.451910000000112, -7.477829998999937, 0.0 ], [ 112.451884457, -7.477915491999966, 0.0 ], [ 112.451560018, -7.479001367999956, 0.0 ], [ 112.451475631000108, -7.479283806999945, 0.0 ], [ 112.45142, -7.47947, 0.0 ], [ 112.45139, -7.47956, 0.0 ], [ 112.45117, -7.48018, 0.0 ], [ 112.45097, -7.480989998999974, 0.0 ], [ 112.45091, -7.48127999899998, 0.0 ], [ 112.45087, -7.481500000999972, 0.0 ], [ 112.450849408000067, -7.481748554999967, 0.0 ], [ 112.450843259000067, -7.48174735799995, 0.0 ], [ 112.450454133000108, -7.485485043999972, 0.0 ], [ 112.450412086000028, -7.485786494999957, 0.0 ], [ 112.450306689000058, -7.486542113999974, 0.0 ], [ 112.450306673000114, -7.486542228999951, 0.0 ], [ 112.4502369490001, -7.487042105999933, 0.0 ], [ 112.450221498000019, -7.487172079999937, 0.0 ], [ 112.450124974, -7.487984063999932, 0.0 ], [ 112.450036297000111, -7.488730036999925, 0.0 ], [ 112.44998587200007, -7.489154226999972, 0.0 ], [ 112.449905121000029, -7.490685617999929, 0.0 ], [ 112.449985587000015, -7.49153709999996, 0.0 ], [ 112.450182084000062, -7.492256569999938, 0.0 ], [ 112.449851536000097, -7.493264274999945, 0.0 ], [ 112.449776034000024, -7.493438646999948, 0.0 ], [ 112.449775897000109, -7.49343896299996, 0.0 ], [ 112.449775642000077, -7.493439551999927, 0.0 ], [ 112.448822089000032, -7.493151252999951, 0.0 ], [ 112.448497293000059, -7.493053052999926, 0.0 ], [ 112.448425855000096, -7.493031453999947, 0.0 ], [ 112.44827591, -7.492986119999955, 0.0 ], [ 112.448062219, -7.492941878999943, 0.0 ], [ 112.447603582000056, -7.492796753999926, 0.0 ], [ 112.447248396000077, -7.492684362999967, 0.0 ], [ 112.447243007000111, -7.492681738999977, 0.0 ], [ 112.447112450000077, -7.492618174999961, 0.0 ], [ 112.446742869000104, -7.492438238999966, 0.0 ], [ 112.446517484000083, -7.492243170999927, 0.0 ], [ 112.446367982000083, -7.492113779999954, 0.0 ], [ 112.446349349000116, -7.492097652999973, 0.0 ], [ 112.446352266000076, -7.492093551999972, 0.0 ], [ 112.446621346000029, -7.491715212999964, 0.0 ], [ 112.446695619000025, -7.491610780999963, 0.0 ], [ 112.446635374000039, -7.49159371099995, 0.0 ], [ 112.443788061000078, -7.490786926999931, 0.0 ], [ 112.443788854000104, -7.490590228999963, 0.0 ], [ 112.44380426400005, -7.486767703999931, 0.0 ], [ 112.443756374000031, -7.481857956999932, 0.0 ], [ 112.443756035000092, -7.481857941999976, 0.0 ], [ 112.442707115000076, -7.481814920999966, 0.0 ], [ 112.442039151000017, -7.481755161999956, 0.0 ], [ 112.440920777000088, -7.481673642999965, 0.0 ], [ 112.439872363000063, -7.481615124999962, 0.0 ], [ 112.439833521000082, -7.481630480999968, 0.0 ], [ 112.439779154, -7.481651973999931, 0.0 ], [ 112.439463915000033, -7.481776600999979, 0.0 ], [ 112.438856192000117, -7.481920424999942, 0.0 ], [ 112.438669412000081, -7.482086871999968, 0.0 ], [ 112.438645089000033, -7.482108547999928, 0.0 ], [ 112.436543836000055, -7.481718572999966, 0.0 ], [ 112.436442716000101, -7.482486985999969, 0.0 ], [ 112.436504351000053, -7.483225325999967, 0.0 ], [ 112.436402893000036, -7.483890343999974, 0.0 ], [ 112.43616015900011, -7.48429749099995, 0.0 ], [ 112.435783846000049, -7.484734298999967, 0.0 ], [ 112.435289663000049, -7.487542366999946, 0.0 ], [ 112.435220800000025, -7.487526116999959, 0.0 ], [ 112.433463597000014, -7.487111463999952, 0.0 ], [ 112.433459418000098, -7.486092949999943, 0.0 ], [ 112.433676985000034, -7.485853649999967, 0.0 ], [ 112.433519397000055, -7.485356230999969, 0.0 ], [ 112.433569690000013, -7.484837388999949, 0.0 ], [ 112.430081644000097, -7.484120986999926, 0.0 ], [ 112.430409697000073, -7.48268836799997, 0.0 ], [ 112.429650585000104, -7.48265970999995, 0.0 ], [ 112.428294433000019, -7.482349445999944, 0.0 ], [ 112.42862367400005, -7.481279898999958, 0.0 ], [ 112.428652200000101, -7.480460292999965, 0.0 ], [ 112.428604576000112, -7.480488216999959, 0.0 ], [ 112.428486183000018, -7.480557635999958, 0.0 ], [ 112.428029539000022, -7.480825385999935, 0.0 ], [ 112.42719812100006, -7.480942187999972, 0.0 ], [ 112.426453762000051, -7.480925302999935, 0.0 ], [ 112.426451752000048, -7.480925256999967, 0.0 ], [ 112.426450826000064, -7.480925235999962, 0.0 ], [ 112.426339272000064, -7.480965632999926, 0.0 ], [ 112.42632, -7.480849998999929, 0.0 ], [ 112.426328329000057, -7.480820851999965, 0.0 ], [ 112.42633, -7.480815, 0.0 ], [ 112.42634, -7.480780000999971, 0.0 ], [ 112.42637, -7.480700000999946, 0.0 ], [ 112.42642, -7.480599998999935, 0.0 ], [ 112.42646, -7.480519998999966, 0.0 ], [ 112.42652, -7.4804, 0.0 ], [ 112.426639999000031, -7.480189998999947, 0.0 ], [ 112.42666852900004, -7.480135536999967, 0.0 ], [ 112.426671910000096, -7.480129077999948, 0.0 ], [ 112.426860001000023, -7.47977, 0.0 ], [ 112.426940001000048, -7.47962, 0.0 ], [ 112.427210001000049, -7.47911, 0.0 ], [ 112.427330001000087, -7.478850001999945, 0.0 ], [ 112.427362410000114, -7.478765975999977, 0.0 ], [ 112.42736380000008, -7.478762371999949, 0.0 ], [ 112.427600001000087, -7.47815, 0.0 ], [ 112.42776, -7.477600000999928, 0.0 ], [ 112.4279, -7.476940001999935, 0.0 ], [ 112.427998215000116, -7.476422139999954, 0.0 ], [ 112.427998722000098, -7.47641946899995, 0.0 ], [ 112.428010001000075, -7.47636, 0.0 ], [ 112.42811000100005, -7.47591, 0.0 ], [ 112.42823, -7.47515, 0.0 ], [ 112.428320610000014, -7.47457613499995, 0.0 ], [ 112.428323457000033, -7.474558111999954, 0.0 ], [ 112.42838000100005, -7.47419999899995, 0.0 ], [ 112.428420001000063, -7.47401, 0.0 ], [ 112.428540000000112, -7.47358, 0.0 ], [ 112.42858999900011, -7.473330000999965, 0.0 ], [ 112.42871, -7.472779998999954, 0.0 ], [ 112.428753103000076, -7.472578853999948, 0.0 ], [ 112.4287535200001, -7.472576901999957, 0.0 ], [ 112.428770001000089, -7.4725, 0.0 ], [ 112.428784206000046, -7.472450279999975, 0.0 ], [ 112.428786081000112, -7.472450026999979, 0.0 ], [ 112.428856275000044, -7.472440507999977, 0.0 ], [ 112.429809249000073, -7.472376261999955, 0.0 ], [ 112.430774905000021, -7.472363597999959, 0.0 ], [ 112.430781206, -7.47229114199996, 0.0 ], [ 112.43078378000007, -7.472271820999936, 0.0 ], [ 112.430793161000111, -7.472201416999951, 0.0 ], [ 112.430794164000076, -7.472193888999925, 0.0 ], [ 112.430820001000029, -7.472, 0.0 ], [ 112.430827380000096, -7.471918809999977, 0.0 ], [ 112.430827438000051, -7.471918166999956, 0.0 ], [ 112.430848289000096, -7.47168877699994, 0.0 ], [ 112.430860001000042, -7.47169, 0.0 ], [ 112.4311, -7.4717, 0.0 ], [ 112.43143, -7.471730000999969, 0.0 ], [ 112.432, -7.471770000999925, 0.0 ], [ 112.431992956000045, -7.47120315199993, 0.0 ], [ 112.431994298000063, -7.471103415999949, 0.0 ], [ 112.432, -7.470680001999938, 0.0 ], [ 112.432, -7.47047, 0.0 ], [ 112.431990001000031, -7.47009, 0.0 ], [ 112.43198, -7.46947000199998, 0.0 ], [ 112.432, -7.46868, 0.0 ], [ 112.43198, -7.467930001999946, 0.0 ], [ 112.43198, -7.46734, 0.0 ], [ 112.431970001000082, -7.466749998999944, 0.0 ], [ 112.431970001000082, -7.466350001999956, 0.0 ], [ 112.431960000000117, -7.46588000099996, 0.0 ], [ 112.431960000000117, -7.465570001999936, 0.0 ], [ 112.431960000000117, -7.46496, 0.0 ], [ 112.431950001000018, -7.464050001999965, 0.0 ], [ 112.432190000000105, -7.464039998999965, 0.0 ], [ 112.432694150000088, -7.464043451999942, 0.0 ], [ 112.432697042000086, -7.464043472999947, 0.0 ], [ 112.43365, -7.464050001999965, 0.0 ], [ 112.43379, -7.464050001999965, 0.0 ], [ 112.4343, -7.464010001999952, 0.0 ], [ 112.435010001000023, -7.46398, 0.0 ], [ 112.43531, -7.463990001999946, 0.0 ], [ 112.435299999000108, -7.463190001999976, 0.0 ], [ 112.435299999000108, -7.46302, 0.0 ], [ 112.436204596000039, -7.462994554999966, 0.0 ], [ 112.437144370000055, -7.462976878999939, 0.0 ], [ 112.43716, -7.46301, 0.0 ], [ 112.437162054000055, -7.463024377999943, 0.0 ], [ 112.437169998000059, -7.46308, 0.0 ], [ 112.4372, -7.46339, 0.0 ], [ 112.43724, -7.46378, 0.0 ], [ 112.43724, -7.46396, 0.0 ], [ 112.437258342000064, -7.464229004999936, 0.0 ], [ 112.437319853000076, -7.464235018999943, 0.0 ], [ 112.437342010000066, -7.464234697999927, 0.0 ], [ 112.437530860000038, -7.464232721999963, 0.0 ], [ 112.437561162000065, -7.46423240699994, 0.0 ], [ 112.437609695000106, -7.464232890999938, 0.0 ], [ 112.437726795000117, -7.464234061999946, 0.0 ], [ 112.437822515000107, -7.464235018999943, 0.0 ], [ 112.438092273000052, -7.464214732999949, 0.0 ], [ 112.438360669000076, -7.464226703999941, 0.0 ], [ 112.43850343500003, -7.464227592999976, 0.0 ], [ 112.438727586000027, -7.464228982999941, 0.0 ], [ 112.438954976000105, -7.464230933999943, 0.0 ], [ 112.439422703000105, -7.464235018999943, 0.0 ], [ 112.439496367000061, -7.464240950999965, 0.0 ], [ 112.439509436000094, -7.464531726999951, 0.0 ], [ 112.439511767000113, -7.464583594999965, 0.0 ], [ 112.439515453000013, -7.464716306999946, 0.0 ], [ 112.439518007000061, -7.464808252999944, 0.0 ], [ 112.43951370000002, -7.464968193999937, 0.0 ], [ 112.439517568000042, -7.465098214999955, 0.0 ], [ 112.43954, -7.465329998999948, 0.0 ], [ 112.43952, -7.46554, 0.0 ], [ 112.439530302000094, -7.465849072999958, 0.0 ], [ 112.439530699000102, -7.465860970999927, 0.0 ], [ 112.439536954, -7.466048631999968, 0.0 ], [ 112.439547743000048, -7.466372324999952, 0.0 ], [ 112.439132731000086, -7.466367853999941, 0.0 ], [ 112.43905557100004, -7.466367022999975, 0.0 ], [ 112.438468189000105, -7.466364344999931, 0.0 ], [ 112.438150459000099, -7.466368643999942, 0.0 ], [ 112.43814, -7.466519998999956, 0.0 ], [ 112.437920001000066, -7.467480000999956, 0.0 ], [ 112.437900001000116, -7.467560000999981, 0.0 ], [ 112.43783, -7.467850000999931, 0.0 ], [ 112.437760001000015, -7.468220000999963, 0.0 ], [ 112.437760001000015, -7.46831, 0.0 ], [ 112.43767, -7.468730000999926, 0.0 ], [ 112.43765, -7.46881, 0.0 ], [ 112.43761, -7.469000000999927, 0.0 ], [ 112.43748, -7.469539997999959, 0.0 ], [ 112.43751604900001, -7.469549470999937, 0.0 ], [ 112.438276826000106, -7.469591444999935, 0.0 ], [ 112.438577804000033, -7.469592797999951, 0.0 ], [ 112.438573520000091, -7.469795525999928, 0.0 ], [ 112.439193093000085, -7.469805976999965, 0.0 ], [ 112.439606688000026, -7.469787947999976, 0.0 ], [ 112.439608552000095, -7.469901645999926, 0.0 ], [ 112.43961, -7.469989998999949, 0.0 ], [ 112.43963, -7.471099997999943, 0.0 ], [ 112.43965, -7.472289997999951, 0.0 ], [ 112.43965, -7.47263000099997, 0.0 ], [ 112.439660000000117, -7.473109998999973, 0.0 ], [ 112.439660000000117, -7.47353, 0.0 ], [ 112.43966191100003, -7.473710242999971, 0.0 ], [ 112.439666529000078, -7.474218041999961, 0.0 ], [ 112.439797800000065, -7.474210868999933, 0.0 ], [ 112.439969597000072, -7.474194818999933, 0.0 ], [ 112.440485465000052, -7.474146624999946, 0.0 ], [ 112.440506881000033, -7.474101413999961, 0.0 ], [ 112.44052591600007, -7.473930092999979, 0.0 ], [ 112.440566366000098, -7.473865847999946, 0.0 ], [ 112.440719686000079, -7.47388338199994, 0.0 ], [ 112.440799811000034, -7.473892545999945, 0.0 ], [ 112.440978452000081, -7.473912976999941, 0.0 ], [ 112.441034805000072, -7.473919422999927, 0.0 ], [ 112.44111836400009, -7.473928977999947, 0.0 ], [ 112.441161195000063, -7.473933875999933, 0.0 ], [ 112.441256366000061, -7.473944759999938, 0.0 ], [ 112.441277553000077, -7.473947714999952, 0.0 ], [ 112.441415071000051, -7.473966896999968, 0.0 ], [ 112.441494319000071, -7.473977950999938, 0.0 ], [ 112.441900954000062, -7.474034671999959, 0.0 ], [ 112.442293698000071, -7.474089452999976, 0.0 ], [ 112.442296860000056, -7.47422338299998, 0.0 ], [ 112.442297074000066, -7.474232459999939, 0.0 ], [ 112.442299809000019, -7.474348303999932, 0.0 ], [ 112.442301605000011, -7.474424404999979, 0.0 ], [ 112.442303532000096, -7.474506041999973, 0.0 ], [ 112.442896458000064, -7.474452694999968, 0.0 ], [ 112.443252739000059, -7.474420638999959, 0.0 ], [ 112.44335095200006, -7.47441127299993, 0.0 ], [ 112.443717309000021, -7.474376328999938, 0.0 ], [ 112.443933077000111, -7.474356001999979, 0.0 ], [ 112.444067052000037, -7.474343379999937, 0.0 ], [ 112.444086826000103, -7.47434151799996, 0.0 ], [ 112.444552123000108, -7.474306761999969, 0.0 ], [ 112.444584840000061, -7.474288915999978, 0.0 ], [ 112.44460118500001, -7.474161596999977, 0.0 ], [ 112.444620881000105, -7.474008176999973, 0.0 ], [ 112.444632180000099, -7.473920163999935, 0.0 ], [ 112.444641353000065, -7.473848714999974, 0.0 ], [ 112.444641353000065, -7.473792203999949, 0.0 ], [ 112.444542575000014, -7.473795468999981, 0.0 ], [ 112.444281459000081, -7.473804101999974, 0.0 ], [ 112.444207101000075, -7.47382194599993, 0.0 ], [ 112.444210075000115, -7.47389035599997, 0.0 ], [ 112.444201133000092, -7.473920163999935, 0.0 ], [ 112.444183306000014, -7.473979585999928, 0.0 ], [ 112.444025667, -7.473994456999947, 0.0 ], [ 112.443969155000104, -7.473964713999976, 0.0 ], [ 112.443966585000112, -7.473920163999935, 0.0 ], [ 112.443962300000067, -7.473845900999947, 0.0 ], [ 112.443949813000017, -7.473708715999976, 0.0 ], [ 112.443942380000067, -7.473627061999935, 0.0 ], [ 112.44392, -7.473499998999955, 0.0 ], [ 112.444, -7.4734, 0.0 ], [ 112.444047676000082, -7.473320540999964, 0.0 ], [ 112.44406, -7.4733, 0.0 ], [ 112.444075307000048, -7.473264283999981, 0.0 ], [ 112.44409, -7.47323, 0.0 ], [ 112.44413, -7.473149998999929, 0.0 ], [ 112.44415, -7.47306, 0.0 ], [ 112.44416, -7.472611395999934, 0.0 ], [ 112.445069656000101, -7.472540012999957, 0.0 ], [ 112.445084109000049, -7.472386838999967, 0.0 ], [ 112.445095011000035, -7.472271295999974, 0.0 ], [ 112.444856508000044, -7.472281185999975, 0.0 ], [ 112.444870130000027, -7.472179023999956, 0.0 ], [ 112.444910949000018, -7.471872875999964, 0.0 ], [ 112.444934680000074, -7.47169489099997, 0.0 ], [ 112.444949998000084, -7.47158, 0.0 ], [ 112.444989166000028, -7.471268968999937, 0.0 ], [ 112.445004355000037, -7.471148351999943, 0.0 ], [ 112.445064854000066, -7.470667916999957, 0.0 ], [ 112.445069292000085, -7.470632677999959, 0.0 ], [ 112.44512, -7.470230000999948, 0.0 ], [ 112.445128984, -7.470165613999939, 0.0 ], [ 112.445129814000097, -7.470159664999926, 0.0 ], [ 112.445137285000101, -7.470106125999962, 0.0 ], [ 112.445139126000072, -7.470092933999979, 0.0 ], [ 112.445175133000021, -7.46983488199993, 0.0 ], [ 112.445584389000032, -7.469815650999976, 0.0 ], [ 112.446437195000044, -7.469789941999977, 0.0 ], [ 112.446568185000046, -7.469784231999938, 0.0 ], [ 112.446857074000036, -7.469771639999976, 0.0 ], [ 112.446857745000102, -7.469771611999931, 0.0 ], [ 112.447123142, -7.469760043999941, 0.0 ], [ 112.447320000000104, -7.46979, 0.0 ], [ 112.447389999000052, -7.469780000999947, 0.0 ], [ 112.44750015000011, -7.469814434999932, 0.0 ], [ 112.448155984000095, -7.469925203999935, 0.0 ] ] ] ] } }
]
}
